{
  "type": "FeatureCollection",
  "features": [
    {
      "type": "Feature",
      "properties": {
        "norad_id": 34678,
        "name": "COSMOS 2251 DEB",
        "group": "cosmos-2251-debris",
        "lat": 45.13727601270516,
        "lon": 40.73362550884521,
        "alt_km": 772.0589615831641,
        "timestamp": "2025-12-02T15:49:07.589234+00:00",
        "meta_object_name": "COSMOS 2251 DEB",
        "meta_object_id": "1993-036XY",
        "meta_epoch": "2025-12-01T23:06:53.591328",
        "meta_mean_motion": 14.30062172,
        "meta_eccentricity": 0.002425,
        "meta_inclination": 74.0385,
        "meta_ra_of_asc_node": 25.2854,
        "meta_arg_of_pericenter": 77.9618,
        "meta_mean_anomaly": 348.0362,
        "meta_ephemeris_type": 0,
        "meta_classification_type": "U",
        "meta_norad_cat_id": 34678,
        "meta_element_set_no": 999,
        "meta_rev_at_epoch": 87225,
        "meta_bstar": 3.5157384e-05,
        "meta_mean_motion_dot": 6.5e-07,
        "meta_mean_motion_ddot": 0,
        "tle_line1": "1 34678U 93036XY  25335.96312027  .00000065  00000+0  35157-4 0  9992",
        "tle_line2": "2 34678  74.0385  25.2854 0024250  77.9618 348.0362 14.30062172872250"
      },
      "geometry": {
        "type": "Point",
        "coordinates": [
          40.73362550884521,
          45.13727601270516
        ]
      }
    },
    {
      "type": "Feature",
      "properties": {
        "norad_id": 34680,
        "name": "COSMOS 2251 DEB",
        "group": "cosmos-2251-debris",
        "lat": -51.979545314553555,
        "lon": 127.63328680259966,
        "alt_km": 696.0424121286032,
        "timestamp": "2025-12-02T15:49:07.589247+00:00",
        "meta_object_name": "COSMOS 2251 DEB",
        "meta_object_id": "1993-036YA",
        "meta_epoch": "2025-12-02T05:21:49.150656",
        "meta_mean_motion": 14.60433554,
        "meta_eccentricity": 0.00071085,
        "meta_inclination": 74.0419,
        "meta_ra_of_asc_node": 149.9322,
        "meta_arg_of_pericenter": 243.4509,
        "meta_mean_anomaly": 292.1101,
        "meta_ephemeris_type": 0,
        "meta_classification_type": "U",
        "meta_norad_cat_id": 34680,
        "meta_element_set_no": 999,
        "meta_rev_at_epoch": 88174,
        "meta_bstar": 0.0013366554,
        "meta_mean_motion_dot": 6.454e-05,
        "meta_mean_motion_ddot": 0,
        "tle_line1": "1 34680U 93036YA  25336.22348554  .00006454  00000+0  13367-2 0  9994",
        "tle_line2": "2 34680  74.0419 149.9322 0007108 243.4509 292.1101 14.60433554881740"
      },
      "geometry": {
        "type": "Point",
        "coordinates": [
          127.63328680259966,
          -51.979545314553555
        ]
      }
    },
    {
      "type": "Feature",
      "properties": {
        "norad_id": 34681,
        "name": "COSMOS 2251 DEB",
        "group": "cosmos-2251-debris",
        "lat": 70.47631685925042,
        "lon": 4.01410983222662,
        "alt_km": 607.1069874193718,
        "timestamp": "2025-12-02T15:49:07.589257+00:00",
        "meta_object_name": "COSMOS 2251 DEB",
        "meta_object_id": "1993-036YB",
        "meta_epoch": "2025-12-02T07:56:18.684384",
        "meta_mean_motion": 14.82793914,
        "meta_eccentricity": 0.00257039,
        "meta_inclination": 74.0623,
        "meta_ra_of_asc_node": 310.9644,
        "meta_arg_of_pericenter": 9.3983,
        "meta_mean_anomaly": 116.9476,
        "meta_ephemeris_type": 0,
        "meta_classification_type": "U",
        "meta_norad_cat_id": 34681,
        "meta_element_set_no": 999,
        "meta_rev_at_epoch": 89116,
        "meta_bstar": 0.0017877599,
        "meta_mean_motion_dot": 0.00014539,
        "meta_mean_motion_ddot": 0,
        "tle_line1": "1 34681U 93036YB  25336.33077181  .00014539  00000+0  17878-2 0  9996",
        "tle_line2": "2 34681  74.0623 310.9644 0025703   9.3983 116.9476 14.82793914891169"
      },
      "geometry": {
        "type": "Point",
        "coordinates": [
          4.01410983222662,
          70.47631685925042
        ]
      }
    },
    {
      "type": "Feature",
      "properties": {
        "norad_id": 34682,
        "name": "COSMOS 2251 DEB",
        "group": "cosmos-2251-debris",
        "lat": -10.421029545230082,
        "lon": 99.16679920986107,
        "alt_km": 706.4843144050874,
        "timestamp": "2025-12-02T15:49:07.589268+00:00",
        "meta_object_name": "COSMOS 2251 DEB",
        "meta_object_id": "1993-036YC",
        "meta_epoch": "2025-12-01T08:44:17.248992",
        "meta_mean_motion": 14.58748526,
        "meta_eccentricity": 0.00187818,
        "meta_inclination": 74.0382,
        "meta_ra_of_asc_node": 104.649,
        "meta_arg_of_pericenter": 237.8933,
        "meta_mean_anomaly": 153.1163,
        "meta_ephemeris_type": 0,
        "meta_classification_type": "U",
        "meta_norad_cat_id": 34682,
        "meta_element_set_no": 999,
        "meta_rev_at_epoch": 88520,
        "meta_bstar": 0.0011182287,
        "meta_mean_motion_dot": 5.209e-05,
        "meta_mean_motion_ddot": 0,
        "tle_line1": "1 34682U 93036YC  25335.36408853  .00005209  00000+0  11182-2 0  9999",
        "tle_line2": "2 34682  74.0382 104.6490 0018781 237.8933 153.1163 14.58748526885206"
      },
      "geometry": {
        "type": "Point",
        "coordinates": [
          99.16679920986107,
          -10.421029545230082
        ]
      }
    },
    {
      "type": "Feature",
      "properties": {
        "norad_id": 34683,
        "name": "COSMOS 2251 DEB",
        "group": "cosmos-2251-debris",
        "lat": -55.508763483717864,
        "lon": 87.00837181340536,
        "alt_km": 682.5795226150958,
        "timestamp": "2025-12-02T15:49:07.589278+00:00",
        "meta_object_name": "COSMOS 2251 DEB",
        "meta_object_id": "1993-036YD",
        "meta_epoch": "2025-12-01T10:49:49.016928",
        "meta_mean_motion": 14.64221623,
        "meta_eccentricity": 0.00190705,
        "meta_inclination": 74.0275,
        "meta_ra_of_asc_node": 113.9664,
        "meta_arg_of_pericenter": 229.1762,
        "meta_mean_anomaly": 187.4008,
        "meta_ephemeris_type": 0,
        "meta_classification_type": "U",
        "meta_norad_cat_id": 34683,
        "meta_element_set_no": 999,
        "meta_rev_at_epoch": 88183,
        "meta_bstar": 0.0016862453,
        "meta_mean_motion_dot": 8.885e-05,
        "meta_mean_motion_ddot": 0,
        "tle_line1": "1 34683U 93036YD  25335.45126177  .00008885  00000+0  16862-2 0  9999",
        "tle_line2": "2 34683  74.0275 113.9664 0019070 229.1762 187.4008 14.64221623881834"
      },
      "geometry": {
        "type": "Point",
        "coordinates": [
          87.00837181340536,
          -55.508763483717864
        ]
      }
    },
    {
      "type": "Feature",
      "properties": {
        "norad_id": 34685,
        "name": "COSMOS 2251 DEB",
        "group": "cosmos-2251-debris",
        "lat": -16.26544450196481,
        "lon": 163.15369876964974,
        "alt_km": 702.9364183690268,
        "timestamp": "2025-12-02T15:49:07.589289+00:00",
        "meta_object_name": "COSMOS 2251 DEB",
        "meta_object_id": "1993-036YF",
        "meta_epoch": "2025-12-01T23:59:30.567840",
        "meta_mean_motion": 14.57351085,
        "meta_eccentricity": 0.00144613,
        "meta_inclination": 74.0291,
        "meta_ra_of_asc_node": 169.1998,
        "meta_arg_of_pericenter": 273.1457,
        "meta_mean_anomaly": 211.4705,
        "meta_ephemeris_type": 0,
        "meta_classification_type": "U",
        "meta_norad_cat_id": 34685,
        "meta_element_set_no": 999,
        "meta_rev_at_epoch": 88375,
        "meta_bstar": 0.0010728725,
        "meta_mean_motion_dot": 4.841e-05,
        "meta_mean_motion_ddot": 0,
        "tle_line1": "1 34685U 93036YF  25335.99965935  .00004841  00000+0  10729-2 0  9997",
        "tle_line2": "2 34685  74.0291 169.1998 0014461 273.1457 211.4705 14.57351085883759"
      },
      "geometry": {
        "type": "Point",
        "coordinates": [
          163.15369876964974,
          -16.26544450196481
        ]
      }
    },
    {
      "type": "Feature",
      "properties": {
        "norad_id": 34689,
        "name": "COSMOS 2251 DEB",
        "group": "cosmos-2251-debris",
        "lat": -46.93497041541582,
        "lon": -136.84636754276602,
        "alt_km": 719.0232628431731,
        "timestamp": "2025-12-02T15:49:07.589299+00:00",
        "meta_object_name": "COSMOS 2251 DEB",
        "meta_object_id": "1993-036YK",
        "meta_epoch": "2025-12-01T04:52:05.077056",
        "meta_mean_motion": 14.04150485,
        "meta_eccentricity": 0.0229843,
        "meta_inclination": 74.0888,
        "meta_ra_of_asc_node": 243.4543,
        "meta_arg_of_pericenter": 314.8144,
        "meta_mean_anomaly": 197.2792,
        "meta_ephemeris_type": 0,
        "meta_classification_type": "U",
        "meta_norad_cat_id": 34689,
        "meta_element_set_no": 999,
        "meta_rev_at_epoch": 84179,
        "meta_bstar": 0.0056499,
        "meta_mean_motion_dot": 0.00011323,
        "meta_mean_motion_ddot": 0,
        "tle_line1": "1 34689U 93036YK  25335.20283654  .00011323  00000+0  56499-2 0  9993",
        "tle_line2": "2 34689  74.0888 243.4543 0229843 314.8144 197.2792 14.04150485841793"
      },
      "geometry": {
        "type": "Point",
        "coordinates": [
          -136.84636754276602,
          -46.93497041541582
        ]
      }
    }
  ]
}